SAR-LUPE 2              
1 31797U 07030A   26179.57296612  .00033195  00000+0  55788-3 0  9996
2 31797  98.1056 285.4309 0002620 179.7982 180.3270 15.51703005 58700
SAPPHIRE                
1 39088U 13009C   26179.59510142  .00000097  00000+0  48973-4 0  9993
2 39088  98.4264 358.7801 0010557 209.6700 150.3888 14.35243566698215
PRAETORIAN SDA_602      
1 65565U 25203A   26176.91435568  .00000104  00000+0  82306-4 0  9999
2 65565  81.3029   2.6841 0006264 162.2891 197.8485 13.84278827 39903
PRAETORIAN SDA_603      
1 65566U 25203B   26179.61846071  .00000135  00000+0  11081-3 0  9990
2 65566  81.3034   0.1026 0010064 156.8863 203.2748 13.83906738 40284
PRAETORIAN SDA_604      
1 65567U 25203C   26179.64525723  .00000073  00000+0  55583-4 0  9999
2 65567  81.3052   0.5079 0005899 160.6400 199.4981 13.83048713 40260
PRAETORIAN SDA_605      
1 65568U 25203D   26179.60739337  .00000046  00000+0  31141-4 0  9998
2 65568  81.3018   0.1948 0008703 152.8096 207.3517 13.83435030 40272
PRAETORIAN SDA_606      
1 65569U 25203E   26179.59191353  .00000034  00000+0  20037-4 0  9996
2 65569  81.3052   0.4395 0006570 155.5345 204.6124 13.83198653 40267
PRAETORIAN SDA_607      
1 65570U 25203F   26179.59097468  .00000229  00000+0  19439-3 0  9999
2 65570  81.3039   0.0823 0009261 157.1083 203.0488 13.84286020 40288
PRAETORIAN SDA_608      
1 65571U 25203G   26179.64452526  .00000065  00000+0  47650-4 0  9991
2 65571  81.3006   0.1990 0006405 159.8766 200.2644 13.83817758 40272
PRAETORIAN SDA_609      
1 65572U 25203H   26179.57390512  .00000171  00000+0  14295-3 0  9996
2 65572  81.3049   0.2451 0007288 154.9142 205.2370 13.84210194 40270
PRAETORIAN SDA_610      
1 65573U 25203J   26179.62466586  .00000071  00000+0  53791-4 0  9992
2 65573  81.3007   0.1763 0007177 159.6062 200.5382 13.83768654 40279
PRAETORIAN SDA_611      
1 65574U 25203K   26179.62925575  .00000125  00000+0  10339-3 0  9991
2 65574  81.3008   0.3458 0005973 163.1650 196.9705 13.83310622 40263
PRAETORIAN SDA_612      
1 65575U 25203L   26179.60459090  .00000187  00000+0  15489-3 0  9993
2 65575  81.3030 359.9267 0009792 156.3510 203.8099 13.85040790 40297
PRAETORIAN SDA_613      
1 65576U 25203M   26179.64049928  .00000058  00000+0  42728-4 0  9997
2 65576  81.2999   0.3413 0006180 153.8316 206.3154 13.82766103 40262
PRAETORIAN SDA_614      
1 65577U 25203N   26179.59592319  .00000052  00000+0  35610-4 0  9995
2 65577  81.3013   0.0156 0007659 153.4407 206.7144 13.84778137 40299
PRAETORIAN SDA_615      
1 65578U 25203P   26179.57562162  .00000139  00000+0  11340-3 0  9996
2 65578  81.3024   0.0055 0009499 154.9434 205.2186 13.84436739 40288
PRAETORIAN SDA_616      
1 65579U 25203Q   26179.62881144  .00000215  00000+0  18510-3 0  9998
2 65579  81.3064   0.4992 0005898 161.3496 198.7878 13.83269630 40261
PRAETORIAN SDA_617      
1 65580U 25203R   26179.57905377  .00000054  00000+0  38429-4 0  9992
2 65580  81.3035   0.3752 0007889 153.8586 206.2970 13.83150747 40268
PRAETORIAN SDA_618      
1 65581U 25203S   26177.44424983  .00000028  00000+0  14181-4 0  9996
2 65581  81.3021   1.9070 0010122 162.7241 197.4262 13.84669977 39999
PRAETORIAN SDA_619      
1 65582U 25203T   26179.58278257  .00000205  00000+0  17418-3 0  9997
2 65582  81.3043   0.2392 0008643 155.2450 204.9122 13.83806962 40905
PRAETORIAN SDA_620      
1 65583U 25203U   26179.61231400  .00000240  00000+0  20622-3 0  9991
2 65583  81.3029   0.2346 0008166 150.7770 209.3845 13.83619921 40272
PRAETORIAN SDA_621      
1 65584U 25203V   26179.58459035  .00000060  00000+0  43100-4 0  9991
2 65584  81.3020   0.1737 0007969 148.8948 211.2682 13.83802292 40278
PRAETORIAN SDA_601      
1 65585U 25203W   26179.63277466  .00000231  00000+0  20022-3 0  9991
2 65585  81.3039   0.4389 0005935 164.5316 195.6023 13.83168724 40268
VICTUS HAZE PUMA        
1 69646U 26142A   26179.66467087  .00003960  00000+0  18218-3 0  9995
2 69646  97.4480  77.1574 0020984 285.9921  73.9003 15.20733956  1414
